[Satellite]
VERSION=1.1
NAME=DUMMY MASS 2 [-]
NICKNAME=DUMMY MASS 2 [-]
TLE1=1 24926U 97048B   19317.68927431  .00000072  00000-0  51064-5 0  9992
TLE2=2 24926  86.3361 359.1593 0008130 164.9416 195.2051 14.84981272201945
STATUS=2
